[{"OBJECT_NAME":"STARLINK-35526","OBJECT_ID":"2025-225X","EPOCH":"2026-03-09T12:36:05.566752","MEAN_MOTION":15.3018248,"ECCENTRICITY":0.00011178,"INCLINATION":53.1599,"RA_OF_ASC_NODE":166.3893,"ARG_OF_PERICENTER":82.3211,"MEAN_ANOMALY":277.7917,"EPHEMERIS_TYPE":0,"CLASSIFICATION_TYPE":"U","NORAD_CAT_ID":65931,"ELEMENT_SET_NO":999,"REV_AT_EPOCH":2438,"BSTAR":0.00062906036,"MEAN_MOTION_DOT":0.00018308,"MEAN_MOTION_DDOT":0},{"OBJECT_NAME":"SL-3 R\/B","OBJECT_ID":"1981-065B","EPOCH":"2026-03-09T21:58:16.284000","MEAN_MOTION":15.33300883,"ECCENTRICITY":0.00117648,"INCLINATION":97.6337,"RA_OF_ASC_NODE":111.1786,"ARG_OF_PERICENTER":10.529,"MEAN_ANOMALY":349.6196,"EPHEMERIS_TYPE":0,"CLASSIFICATION_TYPE":"U","NORAD_CAT_ID":12586,"ELEMENT_SET_NO":999,"REV_AT_EPOCH":43499,"BSTAR":0.00030084921,"MEAN_MOTION_DOT":9.62e-5,"MEAN_MOTION_DDOT":0}]
